TJS-25                  
1 69474U 26129A   26191.87585844 -.00000357  00000+0  00000+0 0  9992
2 69474   5.9584 330.3148 0002673 284.5570 109.4087  1.00273978   303
STARLINK-37816          
1 69478U 26131A   26192.16668980 -.02413409  00000+0 -42333-1 0  9991
2 69478  97.2837 213.7375 0001259  70.3757 337.2180 15.54304379  5860
STARLINK-37878          
1 69479U 26131B   26192.16668980 -.02595405  00000+0 -33577-1 0  9999
2 69479  97.2843 213.7687 0001818  62.1083  60.5650 15.62608669  4715
STARLINK-37817          
1 69480U 26131C   26192.16668980 -.02551117  00000+0 -33590-1 0  9998
2 69480  97.2839 213.7877 0001760  67.3869 101.2655 15.62090846  5865
STARLINK-37727          
1 69481U 26131D   26192.16668980 -.02070697  00000+0 -36445-1 0  9990
2 69481  97.2844 213.7401 0001336  71.0135 342.4272 15.53651812  5862
STARLINK-37814          
1 69482U 26131E   26192.16668980 -.02542012  00000+0 -34158-1 0  9995
2 69482  97.2841 213.7874 0001934  77.1949  87.4267 15.61552649  5865
STARLINK-37869          
1 69483U 26131F   26192.16668980 -.02788338  00000+0 -38639-1 0  9997
2 69483  97.2838 213.7658 0001904  71.5908  55.3526 15.60492024  5863
STARLINK-37873          
1 69484U 26131G   26192.16668980 -.02629548  00000+0 -39068-1 0  9992
2 69484  97.2838 213.7746 0001846  56.6227  87.3797 15.59089143  5862
STARLINK-37892          
1 69485U 26131H   26192.16668980 -.02796102  00000+0 -39089-1 0  9997
2 69485  97.2841 213.7879 0002048  83.7479  94.1090 15.60272549  5867
STARLINK-37893          
1 69486U 26131J   26192.16668980 -.02339342  00000+0 -29912-1 0  9991
2 69486  97.2845 213.7895 0001931  78.5623  90.8848 15.62514939  5940
STARLINK-37842          
1 69487U 26131K   26192.16668980 -.02806035  00000+0 -38407-1 0  9999
2 69487  97.2838 213.7690 0001912  83.6393  49.9721 15.60835438  5860
STARLINK-37449          
1 69488U 26131L   26192.16668980 -.02877469  00000+0 -40121-1 0  9995
2 69488  97.2840 213.7938 0002060  97.7021  94.2683 15.60447622  5952
STARLINK-37831          
1 69489U 26131M   26192.16668980 -.01590111  00000+0 -26878-1 0  9994
2 69489  97.2841 213.7549 0001076 101.9041 339.6553 15.54444592  4494
STARLINK-37879          
1 69490U 26131N   26192.16668980 -.02484437  00000+0 -38165-1 0  9992
2 69490  97.2849 213.7810 0001777  55.9278  92.5755 15.57974579  5860
STARLINK-37856          
1 69491U 26131P   26192.16668980 -.02410431  00000+0 -36452-1 0  9993
2 69491  97.2846 213.7706 0001938  66.3742  58.9176 15.58268535  5922
STARLINK-37568          
1 69492U 26131Q   26192.16668980 -.02461752  00000+0 -41876-1 0  9992
2 69492  97.2843 213.7713 0002125  79.3490  46.3066 15.55207159  5955
STARLINK-37855          
1 69493U 26131R   26192.16668980 -.02557765  00000+0 -28011-1 0  9999
2 69493  97.2846 213.8224 0001899  92.4412 151.7688 15.66721638  5927
STARLINK-37854          
1 69494U 26131S   26192.16668980 -.02522429  00000+0 -33370-1 0  9993
2 69494  97.2842 213.7954 0001936  82.4195 100.9839 15.61922855  5925
STARLINK-37789          
1 69495U 26131T   26192.16668980 -.01202216  00000+0 -18494-1 0  9992
2 69495  97.2838 213.7855 0001667  79.3252  93.0996 15.57116421  5948
STARLINK-37839          
1 69496U 26131U   26192.16668980 -.02576454  00000+0 -38502-1 0  9994
2 69496  97.2845 213.7844 0001998  74.9822  82.8291 15.58847687  5924
STARLINK-37798          
1 69497U 26131V   26192.16668980 -.01336061  00000+0 -20340-1 0  9993
2 69497  97.2849 213.7896 0001574  81.8690  97.6228 15.57231549  5923
STARLINK-37853          
1 69498U 26131W   26192.16668980 -.00153001  00000+0 -10411-2 0  9993
2 69498  97.2845 213.8580 0000841  98.8413 236.6512 15.75241228  5924
STARLINK-37849          
1 69499U 26131X   26192.16668980 -.02562190  00000+0 -45160-1 0  9997
2 69499  97.2856 213.7777 0001637  55.1760  85.9041 15.53781616  5949
STARLINK-37835          
1 69500U 26131Y   26192.16668980 -.02435325  00000+0 -41984-1 0  9999
2 69500  97.2845 213.7793 0001718  68.5438  75.9407 15.54806059  4829
STARLINK-37843          
1 69501U 26131Z   26192.16668980 -.02448338  00000+0 -44265-1 0  9993
2 69501  97.2848 213.7718 0001738  72.5567  53.7307 15.53532229  5929
STARS-X                 
1 69502U 26132A   26191.98477280  .00001164  00000+0  10050-3 0  9990
2 69502  97.6884 255.3441 0014157 179.8035 180.3196 14.99101760  4348
PETREL                  
1 69503U 26132B   26192.04986685  .00000944  00000+0  82269-4 0  9990
2 69503  97.6913 255.4233 0014050 181.4433 178.6752 14.99179998  4352
BRO-22                  
1 69504U 26132C   26192.17128336  .00000651  00000+0  57304-4 0  9993
2 69504  97.6831 255.5441 0016121 195.4200 164.6534 14.99798641  4379
HORN-L                  
1 69505U 26132D   26191.59874567  .00002811  00000+0  16993-3 0  9991
2 69505  97.6828 255.1999 0028853 224.9163 134.9732 15.11180435  4305
VERTECS                 
1 69506U 26132E   26192.14903248  .00000999  00000+0  82851-4 0  9995
2 69506  97.6827 255.5836 0015338 220.3725 139.6361 15.00982564  4364
